{
    "links": {
        "self": "http://www.neowsapp.com/rest/v1/neo/3373684?api_key=iIulBulltgU6a56xZRHN4H3l9WmuAYTsLGpBGhQ2"
    },
    "id": "3373684",
    "neo_reference_id": "3373684",
    "name": "(2007 GT3)",
    "designation": "2007 GT3",
    "nasa_jpl_url": "http://ssd.jpl.nasa.gov/sbdb.cgi?sstr=3373684",
    "absolute_magnitude_h": 19.7,
    "estimated_diameter": {
        "kilometers": {
            "estimated_diameter_min": 0.3051792326,
            "estimated_diameter_max": 0.6824015094
        },
        "meters": {
            "estimated_diameter_min": 305.1792325939,
            "estimated_diameter_max": 682.4015094011
        },
        "miles": {
            "estimated_diameter_min": 0.1896295249,
            "estimated_diameter_max": 0.4240245083
        },
        "feet": {
            "estimated_diameter_min": 1001.2442334633,
            "estimated_diameter_max": 2238.8501681036
        }
    },
    "is_potentially_hazardous_asteroid": false,
    "close_approach_data": [
        {
            "close_approach_date": "2007-04-27",
            "close_approach_date_full": "2007-Apr-27 01:50",
            "epoch_date_close_approach": 1177638600000,
            "relative_velocity": {
                "kilometers_per_second": "34.0902012919",
                "kilometers_per_hour": "122724.7246509271",
                "miles_per_hour": "76256.3712699052"
            },
            "miss_distance": {
                "astronomical": "0.1865801985",
                "lunar": "72.5796972165",
                "kilometers": "27912000.279777195",
                "miles": "17343712.735207491"
            },
            "orbiting_body": "Earth"
        }
    ],
    "orbital_data": {
        "orbit_id": "10",
        "orbit_determination_date": "2017-04-06 09:06:36",
        "first_observation_date": "2007-04-11",
        "last_observation_date": "2007-04-24",
        "data_arc_in_days": 13,
        "observations_used": 31,
        "orbit_uncertainty": "8",
        "minimum_orbit_intersection": ".126955",
        "jupiter_tisserand_invariant": "2.994",
        "epoch_osculation": "2454205.5",
        "eccentricity": ".9393468206373567",
        "semi_major_axis": "1.99338848677099",
        "inclination": "25.42468440613601",
        "ascending_node_longitude": "15.74571849615213",
        "orbital_period": "1027.98397649971",
        "perihelion_distance": ".1209053494275489",
        "perihelion_argument": "341.8943773754403",
        "aphelion_distance": "3.865871624114432",
        "perihelion_time": "2454257.246209881923",
        "mean_anomaly": "341.8784767240022",
        "mean_motion": ".3502000111186575",
        "equinox": "J2000",
        "orbit_class": {
            "orbit_class_type": "APO",
            "orbit_class_description": "Near-Earth asteroid orbits which cross the Earth’s orbit similar to that of 1862 Apollo",
            "orbit_class_range": "a (semi-major axis) > 1.0 AU; q (perihelion) < 1.017 AU"
        }
    },
    "is_sentry_object": false
}